{
  "type": "Feature",
  "geometry": {
    "type": "LineString",
    "coordinates": [
      [34.7519, 32.0589],
      [34.7524, 32.0612],
      [34.7531, 32.0641],
      [34.7537, 32.0671],
      [34.7542, 32.0702],
      [34.7548, 32.0735],
      [34.7554, 32.0769],
      [34.7560, 32.0804],
      [34.7564, 32.0838],
      [34.7568, 32.0873],
      [34.7571, 32.0908],
      [34.7574, 32.0943],
      [34.7579, 32.0974],
      [34.7588, 32.0997],
      [34.7602, 32.1009],
      [34.7620, 32.1015],
      [34.7641, 32.1019],
      [34.7664, 32.1022],
      [34.7685, 32.1024],
      [34.7707, 32.1024],
      [34.7727, 32.1023]
    ]
  },
  "properties": {
    "name": "Tel Aviv Marathon Sample Route",
    "city": "Tel Aviv",
    "country": "Israel"
  }
}
